0 SL-16 DEB
1 22387U 92093CC  13281.84955688  .00000522  00000-0  36264-3 0  2203
2 22387 070.8926 168.9518 0113509 147.3964 339.1598 14.00426458 57269
0 SL-16 DEB
1 22387U 92093CC  13283.14214479  .00000545  00000-0  37728-3 0  2216
2 22387 070.8925 166.2872 0113487 145.4532 015.8396 14.00429029 57448
0 SL-16 DEB
1 22387U 92093CC  13286.48085668  .00000407  00000-0  28925-3 0  2230
2 22387 070.8919 159.4043 0113365 140.4757 288.2016 14.00433630 57914
0 SL-16 DEB
1 22387U 92093CC  13287.77751884  .00000539  00000-0  37354-3 0  2246
2 22387 070.8917 156.7310 0113326 138.5370 345.4426 14.00435205 58096
0 SL-16 DEB
1 22387U 92093CC  13288.77777331  .00000642  00000-0  43902-3 0  2254
2 22387 070.8915 154.6688 0113304 137.0426 348.3249 14.00436037 58236
0 SL-16 DEB
1 22387U 92093CC  13289.77896969  .00000668  00000-0  45559-3 0  2263
2 22387 070.8914 152.6047 0113297 135.5448 355.9603 14.00437374 58378
0 SL-16 DEB
1 22387U 92093CC  13291.06987596  .00000662  00000-0  45146-3 0  2272
2 22387 070.8912 149.9433 0113257 133.6176 024.1988 14.00438929 58555
0 SL-16 DEB
1 22387U 92093CC  13292.77803479  .00000648  00000-0  44270-3 0  2280
2 22387 070.8912 146.4216 0113225 131.0639 356.0717 14.00441797 58797
0 SL-16 DEB
1 22387U 92093CC  13293.99074696  .00000559  00000-0  38608-3 0  2296
2 22387 070.8912 143.9213 0113195 129.2510 350.1030 14.00444455 58965
0 SL-16 DEB
1 22387U 92093CC  13295.54374308  .00000588  00000-0  40451-3 0  2305
2 22387 070.8912 140.7194 0113162 126.9327 259.7312 14.00446968 59185
